{
  "type": "FeatureCollection",
  "features": [
    {
      "type": "Feature",
      "properties": {
        "norad_id": 61183,
        "name": "GSAT0226 (GALILEO 31)",
        "group": "gnss",
        "lat": -46.671094704886684,
        "lon": 178.6886294566735,
        "alt_km": 23231.206462175047,
        "timestamp": "2025-12-25T22:42:17.255327+00:00",
        "meta_object_name": "GSAT0226 (GALILEO 31)",
        "meta_object_id": "2024-167B",
        "meta_epoch": "2025-12-25T01:44:41.758656",
        "meta_mean_motion": 1.70473602,
        "meta_eccentricity": 0.00012523,
        "meta_inclination": 55.236,
        "meta_ra_of_asc_node": 226.0978,
        "meta_arg_of_pericenter": 109.4084,
        "meta_mean_anomaly": 12.3648,
        "meta_ephemeris_type": 0,
        "meta_classification_type": "U",
        "meta_norad_cat_id": 61183,
        "meta_element_set_no": 999,
        "meta_rev_at_epoch": 788,
        "meta_bstar": 0,
        "meta_mean_motion_dot": 7.1e-07,
        "meta_mean_motion_ddot": 0,
        "tle_line1": "1 61183U 24167B   25359.07270554  .00000071  00000+0  00000+0 0  9999",
        "tle_line2": "2 61183  55.2360 226.0978 0001252 109.4084  12.3648  1.70473602  7889"
      },
      "geometry": {
        "type": "Point",
        "coordinates": [
          178.6886294566735,
          -46.671094704886684
        ]
      }
    },
    {
      "type": "Feature",
      "properties": {
        "norad_id": 61186,
        "name": "BEIDOU-3 M25 (C47)",
        "group": "gnss",
        "lat": -39.36038561448049,
        "lon": -87.34770398441196,
        "alt_km": 21517.89973613936,
        "timestamp": "2025-12-25T22:42:17.255338+00:00",
        "meta_object_name": "BEIDOU-3 M25 (C47)",
        "meta_object_id": "2024-168B",
        "meta_epoch": "2025-12-25T19:23:17.503008",
        "meta_mean_motion": 1.86229973,
        "meta_eccentricity": 0.000541,
        "meta_inclination": 54.6304,
        "meta_ra_of_asc_node": 308.2683,
        "meta_arg_of_pericenter": 300.2841,
        "meta_mean_anomaly": 276.0104,
        "meta_ephemeris_type": 0,
        "meta_classification_type": "U",
        "meta_norad_cat_id": 61186,
        "meta_element_set_no": 999,
        "meta_rev_at_epoch": 855,
        "meta_bstar": 0,
        "meta_mean_motion_dot": -5.5e-07,
        "meta_mean_motion_ddot": 0,
        "tle_line1": "1 61186U 24168B   25359.80784147 -.00000055  00000+0  00000+0 0  9995",
        "tle_line2": "2 61186  54.6304 308.2683 0005410 300.2841 276.0104  1.86229973  8559"
      },
      "geometry": {
        "type": "Point",
        "coordinates": [
          -87.34770398441196,
          -39.36038561448049
        ]
      }
    },
    {
      "type": "Feature",
      "properties": {
        "norad_id": 61187,
        "name": "BEIDOU-3 M27 (C49)",
        "group": "gnss",
        "lat": 54.18718865660425,
        "lon": 27.832381374831577,
        "alt_km": 21523.373170384148,
        "timestamp": "2025-12-25T22:42:17.255352+00:00",
        "meta_object_name": "BEIDOU-3 M27 (C49)",
        "meta_object_id": "2024-168C",
        "meta_epoch": "2025-12-25T00:22:38.802432",
        "meta_mean_motion": 1.86230181,
        "meta_eccentricity": 0.00025443,
        "meta_inclination": 54.6266,
        "meta_ra_of_asc_node": 308.2793,
        "meta_arg_of_pericenter": 341.3451,
        "meta_mean_anomaly": 198.8284,
        "meta_ephemeris_type": 0,
        "meta_classification_type": "U",
        "meta_norad_cat_id": 61187,
        "meta_element_set_no": 999,
        "meta_rev_at_epoch": 601,
        "meta_bstar": 0,
        "meta_mean_motion_dot": -5.4e-07,
        "meta_mean_motion_ddot": 0,
        "tle_line1": "1 61187U 24168C   25359.01572688 -.00000054  00000+0  00000+0 0  9993",
        "tle_line2": "2 61187  54.6266 308.2793 0002544 341.3451 198.8284  1.86230181  6019"
      },
      "geometry": {
        "type": "Point",
        "coordinates": [
          27.832381374831577,
          54.18718865660425
        ]
      }
    },
    {
      "type": "Feature",
      "properties": {
        "norad_id": 62339,
        "name": "GPS BIII-7  (PRN 01)",
        "group": "gnss",
        "lat": 52.737809342966784,
        "lon": 48.63474501361697,
        "alt_km": 20175.755203238383,
        "timestamp": "2025-12-25T22:42:17.255363+00:00",
        "meta_object_name": "GPS BIII-7  (PRN 01)",
        "meta_object_id": "2024-242A",
        "meta_epoch": "2025-12-25T14:06:28.687392",
        "meta_mean_motion": 2.00568026,
        "meta_eccentricity": 0.0012842,
        "meta_inclination": 54.9198,
        "meta_ra_of_asc_node": 341.2207,
        "meta_arg_of_pericenter": 346.3867,
        "meta_mean_anomaly": 191.38,
        "meta_ephemeris_type": 0,
        "meta_classification_type": "U",
        "meta_norad_cat_id": 62339,
        "meta_element_set_no": 999,
        "meta_rev_at_epoch": 777,
        "meta_bstar": 0,
        "meta_mean_motion_dot": -6e-07,
        "meta_mean_motion_ddot": 0,
        "tle_line1": "1 62339U 24242A   25359.58783203 -.00000060  00000+0  00000+0 0  9992",
        "tle_line2": "2 62339  54.9198 341.2207 0012842 346.3867 191.3800  2.00568026  7776"
      },
      "geometry": {
        "type": "Point",
        "coordinates": [
          48.63474501361697,
          52.737809342966784
        ]
      }
    },
    {
      "type": "Feature",
      "properties": {
        "norad_id": 62850,
        "name": "NVS-02 (IRNSS-1K)",
        "group": "gnss",
        "lat": 1.7960268524043337,
        "lon": 138.19108026954416,
        "alt_km": 20218.15708244466,
        "timestamp": "2025-12-25T22:42:17.255375+00:00",
        "meta_object_name": "NVS-02 (IRNSS-1K)",
        "meta_object_id": "2025-020A",
        "meta_epoch": "2025-12-23T02:48:28.612512",
        "meta_mean_motion": 2.17602057,
        "meta_eccentricity": 0.73473509,
        "meta_inclination": 20.9588,
        "meta_ra_of_asc_node": 323.9017,
        "meta_arg_of_pericenter": 32.9618,
        "meta_mean_anomaly": 356.3768,
        "meta_ephemeris_type": 0,
        "meta_classification_type": "U",
        "meta_norad_cat_id": 62850,
        "meta_element_set_no": 999,
        "meta_rev_at_epoch": 714,
        "meta_bstar": 0.00026724694,
        "meta_mean_motion_dot": 1.47e-06,
        "meta_mean_motion_ddot": 0,
        "tle_line1": "1 62850U 25020A   25357.11699783  .00000147  00000+0  26725-3 0  9992",
        "tle_line2": "2 62850  20.9588 323.9017 7347350  32.9618 356.3768  2.17602057  7148"
      },
      "geometry": {
        "type": "Point",
        "coordinates": [
          138.19108026954416,
          1.7960268524043337
        ]
      }
    },
    {
      "type": "Feature",
      "properties": {
        "norad_id": 62876,
        "name": "QZS-6 (QZSS/PRN 200)",
        "group": "gnss",
        "lat": 0.0677539184470571,
        "lon": 165.78378900055534,
        "alt_km": 35789.632860180114,
        "timestamp": "2025-12-25T22:42:17.255389+00:00",
        "meta_object_name": "QZS-6 (QZSS/PRN 200)",
        "meta_object_id": "2025-023A",
        "meta_epoch": "2025-12-25T13:29:47.199840",
        "meta_mean_motion": 1.00270323,
        "meta_eccentricity": 0.00016782,
        "meta_inclination": 0.0599,
        "meta_ra_of_asc_node": 74.5662,
        "meta_arg_of_pericenter": 207.2793,
        "meta_mean_anomaly": 105.4611,
        "meta_ephemeris_type": 0,
        "meta_classification_type": "U",
        "meta_norad_cat_id": 62876,
        "meta_element_set_no": 999,
        "meta_rev_at_epoch": 321,
        "meta_bstar": 0,
        "meta_mean_motion_dot": -2.12e-06,
        "meta_mean_motion_ddot": 0,
        "tle_line1": "1 62876U 25023A   25359.56235185 -.00000212  00000+0  00000+0 0  9994",
        "tle_line2": "2 62876   0.0599  74.5662 0001678 207.2793 105.4611  1.00270323  3218"
      },
      "geometry": {
        "type": "Point",
        "coordinates": [
          165.78378900055534,
          0.0677539184470571
        ]
      }
    },
    {
      "type": "Feature",
      "properties": {
        "norad_id": 63130,
        "name": "COSMOS 2584 (704K)",
        "group": "gnss",
        "lat": -26.336052533455756,
        "lon": 65.36247275180072,
        "alt_km": 19140.29931610317,
        "timestamp": "2025-12-25T22:42:17.255401+00:00",
        "meta_object_name": "COSMOS 2584 (704K)",
        "meta_object_id": "2025-042A",
        "meta_epoch": "2025-12-24T02:34:25.549824",
        "meta_mean_motion": 2.13102981,
        "meta_eccentricity": 0.00077651,
        "meta_inclination": 64.9819,
        "meta_ra_of_asc_node": 78.7588,
        "meta_arg_of_pericenter": 220.6893,
        "meta_mean_anomaly": 139.3012,
        "meta_ephemeris_type": 0,
        "meta_classification_type": "U",
        "meta_norad_cat_id": 63130,
        "meta_element_set_no": 999,
        "meta_rev_at_epoch": 631,
        "meta_bstar": 0,
        "meta_mean_motion_dot": 1e-08,
        "meta_mean_motion_ddot": 0,
        "tle_line1": "1 63130U 25042A   25358.10724016  .00000001  00000+0  00000+0 0  9999",
        "tle_line2": "2 63130  64.9819  78.7588 0007765 220.6893 139.3012  2.13102981  6316"
      },
      "geometry": {
        "type": "Point",
        "coordinates": [
          65.36247275180072,
          -26.336052533455756
        ]
      }
    }
  ]
}